IRIDIUM 150             
1 43257U 18030J   24336.81388247  .00000277  00000+0  91844-4 0  9997
2 43257  86.3984 165.5443 0001690  84.2476 275.8912 14.34218903349551
IRIDIUM 143             
1 43258U 18030K   24336.93438938  .00000021  00000+0  40798-6 0  9995
2 43258  86.3990 165.5648 0001498  78.9447 281.1917 14.34217565349536
IRIDIUM 161             
1 43478U 18047C   24336.68788612  .00001292  00000+0  37808-3 0  9992
2 43478  86.4469 323.5419 0002235  83.8110 276.3345 14.43292192344003
IRIDIUM 152             
1 43479U 18047D   24336.83733859  .00000010  00000+0 -34944-5 0  9991
2 43479  86.3943 323.3389 0002422  87.6206 272.5267 14.34218343341880
IRIDIUM 147             
1 43480U 18047E   24337.12275510  .00000428  00000+0  14560-3 0  9993
2 43480  86.3947 323.2146 0002530  92.9783 267.1703 14.34220357341923
IRIDIUM 110             
1 43481U 18047F   24336.85002405  .00000268  00000+0  88756-4 0  9995
2 43481  86.3949 323.4063 0002714  86.3886 273.7620 14.34219844341875
IRIDIUM 162             
1 43482U 18047G   24336.68160505  .00001283  00000+0  37536-3 0  9990
2 43482  86.4470 323.4423 0002509  85.6352 274.5135 14.43288545343997
IRIDIUM 160             
1 43569U 18061A   24336.58655900  .00000964  00000+0  33729-3 0  9994
2 43569  86.3944 291.8735 0002346  91.2549 268.8915 14.34219067332737
